COSMOS 2404 (701)       
<<<<<<< .mine
1 28112U 03056A   09144.92712567 -.00000023  00000-0  10000-3 0  5845
2 28112  63.9724 283.5002 0046924 101.6602 275.0867  2.13096808 42455
=======
1 28112U 03056A   09122.79547020 -.00000017  00000-0  10000-3 0  5669
2 28112  63.9855 284.2844 0047346 100.9454 217.5538  2.13096894 41975
>>>>>>> .r148
COSMOS 2403 (795)       
<<<<<<< .mine
1 28114U 03056C   09144.59869608 -.00000024  00000-0  10000-3 0  5211
2 28114  63.9962 283.5368 0038418  80.2728 140.8039  2.13104612 42448
=======
1 28114U 03056C   09121.85043843 -.00000007  00000-0  10000-3 0  5031
2 28114  64.0096 284.3421 0038782  79.8831 329.2815  2.13104581 41966
>>>>>>> .r148
COSMOS 2413 (712)       
<<<<<<< .mine
1 28509U 04053B   09144.97476053 -.00000022  00000-0  10000-3 0  2368
2 28509  63.8666 282.3032 0006897 142.4938 223.2746  2.13102918 34327
=======
1 28509U 04053B   09122.49228661 -.00000014  00000-0  10000-3 0  2182
2 28509  63.8805 283.1033 0006771 137.1564 260.7288  2.13102841 33847
>>>>>>> .r148
COSMOS 2419 (714)       
<<<<<<< .mine
1 28915U 05050A   09144.96690959  .00000100  00000-0  10000-3 0  9643
2 28915  64.8638 164.5649 0009684 323.5080  63.3603  2.13102050 26570
=======
1 28915U 05050A   09121.57324081  .00000050  00000-0  10000-3 0  9470
2 28915  64.8633 165.3378 0009278 326.0558 114.0038  2.13102111 26079
>>>>>>> .r148
COSMOS 2418 (713)       
<<<<<<< .mine
1 28916U 05050B   09144.57080167  .00000104  00000-0  10000-3 0  9537
2 28916  64.8825 164.6103 0020618 330.3062  65.9053  2.13103527 26567
=======
1 28916U 05050B   09121.60215787  .00000050  00000-0  10000-3 0  9365
2 28916  64.8814 165.3685 0020162 331.7482  83.5970  2.13103395 26076
>>>>>>> .r148
COSMOS 2425 (716)       
<<<<<<< .mine
1 29670U 06062A   09144.64211265 -.00000034  00000-0  10000-3 0  6846
2 29670  65.3693  43.7512 0025266 351.3592 134.5351  2.13103331 18760
=======
1 29670U 06062A   09121.71821706 -.00000046  00000-0  10000-3 0  6670
2 29670  65.3565  44.5278 0025650 349.2271 190.2154  2.13103348 18277
>>>>>>> .r148
COSMOS 2426 (717)       
<<<<<<< .mine
1 29671U 06062B   09144.69691126 -.00000034  00000-0  10000-3 0  6941
2 29671  65.3856  43.7770 0016793 168.3070 225.7659  2.13103807 18773
=======
1 29671U 06062B   09122.76344932 -.00000057  00000-0  10000-3 0  6759
2 29671  65.3730  44.5201 0016438 171.5544 315.8576  2.13103813 18305
>>>>>>> .r148
COSMOS 2424 (715)       
<<<<<<< .mine
1 29672U 06062C   09144.60037938 -.00000034  00000-0  10000-3 0  7084
2 29672  65.3708  43.7563 0014273 166.4453 333.7670  2.13103747 18760
=======
1 29672U 06062C   09122.10179843 -.00000050  00000-0  10000-3 0  6905
2 29672  65.3584  44.5188 0014045 171.0318 348.9849  2.13103776 18288
>>>>>>> .r148
COSMOS 2433 (720)       
<<<<<<< .mine
1 32275U 07052A   09144.88350638  .00000101  00000-0  00000-0 0  4371
2 32275  64.8763 164.3072 0005155 272.4170 232.1457  2.13102585 12281
=======
1 32275U 07052A   09121.85442280  .00000052  00000-0  00000+0 0  4170
2 32275  64.8750 165.0675 0004476 271.3075 206.1010  2.13102638 11791
>>>>>>> .r148
COSMOS 2432 (719)       
<<<<<<< .mine
1 32276U 07052B   09144.47221692  .00000105  00000-0  10000-3 0  4136
2 32276  64.8893 164.3432 0016155 331.6354 171.9438  2.13102264 12272
=======
1 32276U 07052B   09122.85686426  .00000060  00000-0  10000-3 0  3964
2 32276  64.8890 165.0572 0015848 333.3395 147.6768  2.13102288 11815
>>>>>>> .r148
COSMOS 2431 (718)       
<<<<<<< .mine
1 32277U 07052C   09144.77231594  .00000102  00000-0  00000-0 0  4281
2 32277  64.8923 164.3274 0018831 199.2110 309.9314  2.13102387 12364
=======
1 32277U 07052C   09122.62998948  .00000058  00000-0  00000+0 0  4104
2 32277  64.8920 165.0586 0018713 197.1851 245.1105  2.13102441 11890
>>>>>>> .r148
COSMOS 2434 (721)       
<<<<<<< .mine
1 32393U 07065A   09144.87155446 -.00000034  00000-0  00000+0 0  2705
2 32393  64.9877  44.2832 0003715  99.8062 291.5852  2.13103245 10998
=======
1 32393U 07065A   09122.82421834 -.00000057  00000-0  00000+0 0  2539
2 32393  64.9756  45.0405 0002623 101.9722 295.4217  2.13103275 10524
>>>>>>> .r148
COSMOS 2435 (722)       
<<<<<<< .mine
1 32394U 07065B   09144.12626975 -.00000036  00000-0  00000+0 0  2548
2 32394  64.9885  44.3109 0003305  46.0541 314.0123  2.13103447 10915
=======
1 32394U 07065B   09121.60181127 -.00000044  00000-0  00000-0 0  2462
2 32394  64.9757  45.0853 0002815  27.6442 332.3734  2.13103456 10435
>>>>>>> .r148
COSMOS 2436 (723)       
<<<<<<< .mine
1 32395U 07065C   09144.71241000 -.00000034  00000-0  10000-3 0  2673
2 32395  65.0009  44.2905 0019864 355.8782   4.1459  2.13103580 10922
=======
1 32395U 07065C   09121.71870770 -.00000046  00000-0  10000-3 0  2561
2 32395  64.9881  45.0797 0020191 352.7672   7.2101  2.13103607 10439
>>>>>>> .r148
COSMOS 2442 (724)       
<<<<<<< .mine
1 33378U 08046A   09144.67052234  .00000103  00000-0  10000-3 0  2068
2 33378  64.7889 163.9620 0029836 331.6816  54.1829  2.13102276  5144
=======
1 33378U 08046A   09122.62825938  .00000058  00000-0  10000-3 0  1897
2 33378  64.7889 164.6931 0029507 332.7702  63.0155  2.13102316  4671
>>>>>>> .r148
COSMOS 2443 (725)       
<<<<<<< .mine
1 33379U 08046B   09144.98478806  .00000099  00000-0  10000-3 0  2008
2 33379  64.7973 163.9849 0020993 189.5904 302.6735  2.13102536  5152
=======
1 33379U 08046B   09122.55697867  .00000058  00000-0  10000-3 0  1809
2 33379  64.7961 164.7276 0020998 187.6856  18.7006  2.13102550  4670
>>>>>>> .r148
COSMOS 2444 (726)       
<<<<<<< .mine
1 33380U 08046C   09144.37251064  .00000106  00000-0  10000-3 0  1972
2 33380  64.8063 164.0138 0031651 325.9334  11.4770  2.13102607  5124
=======
1 33380U 08046C   09121.59403575  .00000051  00000-0  10000-3 0  1796
2 33380  64.8050 164.7675 0031263 326.7517 175.7561  2.13102601  4646
>>>>>>> .r148
COSMOS 2447 (727)       
<<<<<<< .mine
1 33466U 08067A   09144.92400316 -.00000023  00000-0  00000-0 0  1411
2 33466  64.7194 285.0933 0002133 232.2507 273.0728  2.13101689  3200
=======
1 33466U 08067A   09122.86653019 -.00000015  00000-0  00000+0 0  1229
2 33466  64.7330 285.8548 0001552 241.3812 262.2585  2.13101693  2739
>>>>>>> .r148
COSMOS 2449 (729)       
<<<<<<< .mine
1 33467U 08067B   09145.07056243 -.00000023  00000-0  00000+0 0  1414
2 33467  64.7062 285.0762 0001689 269.3560 123.6522  2.13101852  3237
=======
1 33467U 08067B   09122.50560020 -.00000011  00000-0  00000+0 0  1248
2 33467  64.7211 285.8557 0001417 293.1187  68.8622  2.13101823  2757
>>>>>>> .r148
COSMOS 2448 (728)       
<<<<<<< .mine
1 33468U 08067C   09144.86160905 -.00000023  00000-0  00000-0 0  1479
2 33468  64.7120 285.0844 0002870 317.0386 185.3309  2.13101347  3219
=======
1 33468U 08067C   09121.74465302 -.00000005  00000-0  00000+0 0  1299
2 33468  64.7259 285.8824 0003057 330.2268  77.6920  2.13101401  2720
>>>>>>> .r148
